start=new Date('2021-09-12T00:00:00.000Z').valueOf();
sats=[{"ELEMENT_SET_NO":"999","CLASSIFICATION_TYPE":"U","PERIOD":"95.592","GP_ID":"184534379","TIME_SYSTEM":"UTC","MEAN_MOTION_DDOT":"0.0000000000000","MEAN_ANOMALY":"152.3380","REV_AT_EPOCH":"359","ARG_OF_PERICENTER":"67.5686","OBJECT_NAME":"STARLINK-1761","REF_FRAME":"TEME","APOAPSIS":"548.361","SITE":"AFETR","EPOCH":"2021-09-11T22:00:00.999936","MEAN_MOTION":"15.06401377","NORAD_CAT_ID":"47626","CENTER_NAME":"EARTH","FILE":"3113379","TLE_LINE1":"1 47626U 21012G   21254.91667824 -.00017278  00000-0 -11438-2 0  9994","SEMIMAJOR_AXIS":"6925.344","ECCENTRICITY":"0.00016630","OBJECT_ID":"2021-012G","LAUNCH_DATE":"2021-02-16","MEAN_MOTION_DOT":"-0.00017278","PERIAPSIS":"546.058","TLE_LINE2":"2 47626  53.0530 232.8303 0001663  67.5686 152.3380 15.06401377  3591","OBJECT_TYPE":"PAYLOAD","MEAN_ELEMENT_THEORY":"SGP4","DECAY_DATE":null,"COUNTRY_CODE":"US","INCLINATION":"53.0530","EPHEMERIS_TYPE":"0","BSTAR":"-0.00114380000000","RA_OF_ASC_NODE":"232.8303","RCS_SIZE":"LARGE"},{"ELEMENT_SET_NO":"999","CLASSIFICATION_TYPE":"U","PERIOD":"91.531","GP_ID":"184535630","MEAN_MOTION_DDOT":"0.0000000000000","TIME_SYSTEM":"UTC","MEAN_ANOMALY":"220.2928","ARG_OF_PERICENTER":"8.2949","OBJECT_NAME":"STARLINK-1972","REV_AT_EPOCH":"367","REF_FRAME":"TEME","MEAN_MOTION":"15.73230696","EPOCH":"2021-09-11T22:00:00.999936","NORAD_CAT_ID":"47627","SITE":"AFETR","APOAPSIS":"352.256","CENTER_NAME":"EARTH","ECCENTRICITY":"0.00038400","TLE_LINE1":"1 47627U 21012H   21254.91667824  .00019602  00000-0  14352-3 0  9995","SEMIMAJOR_AXIS":"6727.808","FILE":"3113379","MEAN_MOTION_DOT":"0.00019602","OBJECT_ID":"2021-012H","LAUNCH_DATE":"2021-02-16","PERIAPSIS":"347.089","TLE_LINE2":"2 47627  53.0424 148.7689 0003840   8.2949 220.2928 15.73230696  3679","OBJECT_TYPE":"PAYLOAD","MEAN_ELEMENT_THEORY":"SGP4","INCLINATION":"53.0424","EPHEMERIS_TYPE":"0","BSTAR":"0.00014352000000","COUNTRY_CODE":"US","DECAY_DATE":null,"RCS_SIZE":"LARGE","RA_OF_ASC_NODE":"148.7689"},{"REV_AT_EPOCH":"357","OBJECT_NAME":"STARLINK-1973","ARG_OF_PERICENTER":"78.4231","MEAN_ANOMALY":"301.4682","TIME_SYSTEM":"UTC","GP_ID":"184535381","MEAN_MOTION_DDOT":"0.0000000000000","PERIOD":"95.593","CLASSIFICATION_TYPE":"U","ELEMENT_SET_NO":"999","CENTER_NAME":"EARTH","SITE":"AFETR","APOAPSIS":"548.279","NORAD_CAT_ID":"47628","MEAN_MOTION":"15.06385315","EPOCH":"2021-09-11T22:00:00.999936","REF_FRAME":"TEME","LAUNCH_DATE":"2021-02-16","OBJECT_ID":"2021-012J","MEAN_MOTION_DOT":"0.00028701","FILE":"3113379","TLE_LINE1":"1 47628U 21012J   21254.91667824  .00028701  00000-0  19386-2 0  9997","ECCENTRICITY":"0.00014740","SEMIMAJOR_AXIS":"6925.394","RA_OF_ASC_NODE":"232.8420","RCS_SIZE":"LARGE","COUNTRY_CODE":"US","DECAY_DATE":null,"BSTAR":"0.00193860000000","EPHEMERIS_TYPE":"0","INCLINATION":"53.0549","OBJECT_TYPE":"PAYLOAD","MEAN_ELEMENT_THEORY":"SGP4","TLE_LINE2":"2 47628  53.0549 232.8420 0001474  78.4231 301.4682 15.06385315  3573","PERIAPSIS":"546.238"},{"MEAN_ANOMALY":"228.6872","MEAN_MOTION_DDOT":"0.0000000000000","GP_ID":"184510372","TIME_SYSTEM":"UTC","OBJECT_NAME":"STARLINK-1974","ARG_OF_PERICENTER":"1.2491","REV_AT_EPOCH":"3348","ELEMENT_SET_NO":"999","PERIOD":"91.531","CLASSIFICATION_TYPE":"U","CENTER_NAME":"EARTH","REF_FRAME":"TEME","NORAD_CAT_ID":"47629","EPOCH":"2021-09-11T22:00:00.999936","MEAN_MOTION":"15.73246030","SITE":"AFETR","APOAPSIS":"352.228","MEAN_MOTION_DOT":"-0.00013407","OBJECT_ID":"2021-012K","LAUNCH_DATE":"2021-02-16","TLE_LINE1":"1 47629U 21012K   21254.91667824 -.00013407  00000-0 -90985-4 0  9993","ECCENTRICITY":"0.00038630","SEMIMAJOR_AXIS":"6727.764","FILE":"3113240","BSTAR":"-0.00009098500000","EPHEMERIS_TYPE":"0","INCLINATION":"53.0425","COUNTRY_CODE":"US","DECAY_DATE":null,"RCS_SIZE":"LARGE","RA_OF_ASC_NODE":"148.7698","PERIAPSIS":"347.030","TLE_LINE2":"2 47629  53.0425 148.7698 0003863   1.2491 228.6872 15.73246030 33483","OBJECT_TYPE":"PAYLOAD","MEAN_ELEMENT_THEORY":"SGP4"},{"MEAN_MOTION_DOT":"0.00007726","LAUNCH_DATE":"2021-02-16","OBJECT_ID":"2021-012L","TLE_LINE1":"1 47630U 21012L   21254.91667824  .00007726  00000-0  53707-3 0  9990","ECCENTRICITY":"0.00016980","SEMIMAJOR_AXIS":"6925.369","FILE":"3113379","EPHEMERIS_TYPE":"0","INCLINATION":"53.0535","BSTAR":"0.00053707000000","COUNTRY_CODE":"US","DECAY_DATE":null,"RCS_SIZE":"LARGE","RA_OF_ASC_NODE":"212.8306","PERIAPSIS":"546.058","TLE_LINE2":"2 47630  53.0535 212.8306 0001698  65.1647 329.8747 15.06393221  3609","MEAN_ELEMENT_THEORY":"SGP4","OBJECT_TYPE":"PAYLOAD","TIME_SYSTEM":"UTC","GP_ID":"184534879","MEAN_MOTION_DDOT":"0.0000000000000","MEAN_ANOMALY":"329.8747","ARG_OF_PERICENTER":"65.1647","OBJECT_NAME":"STARLINK-1983","REV_AT_EPOCH":"360","ELEMENT_SET_NO":"999","CLASSIFICATION_TYPE":"U","PERIOD":"95.593","CENTER_NAME":"EARTH","REF_FRAME":"TEME","MEAN_MOTION":"15.06393221","EPOCH":"2021-09-11T22:00:00.999936","NORAD_CAT_ID":"47630","SITE":"AFETR","APOAPSIS":"548.410"},{"OBJECT_NAME":"STARLINK-1985","ARG_OF_PERICENTER":"6.4685","REV_AT_EPOCH":"369","MEAN_ANOMALY":"218.9529","GP_ID":"184535131","TIME_SYSTEM":"UTC","MEAN_MOTION_DDOT":"0.0000000000000","PERIOD":"91.529","CLASSIFICATION_TYPE":"U","ELEMENT_SET_NO":"999","CENTER_NAME":"EARTH","NORAD_CAT_ID":"47631","MEAN_MOTION":"15.73275247","EPOCH":"2021-09-11T22:00:00.999936","APOAPSIS":"352.025","SITE":"AFETR","REF_FRAME":"TEME","MEAN_MOTION_DOT":"-0.00075309","LAUNCH_DATE":"2021-02-16","OBJECT_ID":"2021-012M","TLE_LINE1":"1 47631U 21012M   21254.91667824 -.00075309  00000-0 -53487-3 0  9990","ECCENTRICITY":"0.00036860","SEMIMAJOR_AXIS":"6727.681","FILE":"3113379","RCS_SIZE":"MEDIUM","RA_OF_ASC_NODE":"148.7828","BSTAR":"-0.00053487000000","INCLINATION":"53.0428","EPHEMERIS_TYPE":"0","COUNTRY_CODE":"US","DECAY_DATE":null,"MEAN_ELEMENT_THEORY":"SGP4","OBJECT_TYPE":"PAYLOAD","TLE_LINE2":"2 47631  53.0428 148.7828 0003686   6.4685 218.9529 15.73275247  3692","PERIAPSIS":"347.066"},{"SEMIMAJOR_AXIS":"6727.753","TLE_LINE1":"1 47632U 21012N   21254.91667824 -.00016268  00000-0 -11137-3 0  9996","ECCENTRICITY":"0.00037140","FILE":"3113379","MEAN_MOTION_DOT":"-0.00016268","LAUNCH_DATE":"2021-02-16","OBJECT_ID":"2021-012N","TLE_LINE2":"2 47632  53.0425 148.7696 0003714   3.7936 225.4615 15.73249889  3674","PERIAPSIS":"347.119","OBJECT_TYPE":"PAYLOAD","MEAN_ELEMENT_THEORY":"SGP4","BSTAR":"-0.00011137000000","INCLINATION":"53.0425","EPHEMERIS_TYPE":"0","DECAY_DATE":null,"COUNTRY_CODE":"US","RCS_SIZE":"LARGE","RA_OF_ASC_NODE":"148.7696","ELEMENT_SET_NO":"999","PERIOD":"91.530","CLASSIFICATION_TYPE":"U","MEAN_ANOMALY":"225.4615","GP_ID":"184535881","TIME_SYSTEM":"UTC","MEAN_MOTION_DDOT":"0.0000000000000","OBJECT_NAME":"STARLINK-1992","ARG_OF_PERICENTER":"3.7936","REV_AT_EPOCH":"367","REF_FRAME":"TEME","NORAD_CAT_ID":"47632","MEAN_MOTION":"15.73249889","EPOCH":"2021-09-11T22:00:00.999936","APOAPSIS":"352.117","SITE":"AFETR","CENTER_NAME":"EARTH"},{"OBJECT_ID":"2021-012P","LAUNCH_DATE":"2021-02-16","MEAN_MOTION_DOT":"0.00020711","FILE":"3113379","ECCENTRICITY":"0.00013560","TLE_LINE1":"1 47633U 21012P   21254.91667824  .00020711  00000-0  14061-2 0  9991","SEMIMAJOR_AXIS":"6925.421","COUNTRY_CODE":"US","DECAY_DATE":null,"INCLINATION":"53.0521","EPHEMERIS_TYPE":"0","BSTAR":"0.00140610000000","RA_OF_ASC_NODE":"232.8499","RCS_SIZE":"LARGE","PERIAPSIS":"546.347","TLE_LINE2":"2 47633  53.0521 232.8499 0001356  65.8785 234.0757 15.06376308  3596","MEAN_ELEMENT_THEORY":"SGP4","OBJECT_TYPE":"PAYLOAD","GP_ID":"184534130","MEAN_MOTION_DDOT":"0.0000000000000","TIME_SYSTEM":"UTC","MEAN_ANOMALY":"234.0757","REV_AT_EPOCH":"359","ARG_OF_PERICENTER":"65.8785","OBJECT_NAME":"STARLINK-2009","ELEMENT_SET_NO":"999","CLASSIFICATION_TYPE":"U","PERIOD":"95.594","CENTER_NAME":"EARTH","REF_FRAME":"TEME","APOAPSIS":"548.225","SITE":"AFETR","EPOCH":"2021-09-11T22:00:00.999936","MEAN_MOTION":"15.06376308","NORAD_CAT_ID":"47633"},{"DECAY_DATE":null,"COUNTRY_CODE":"US","EPHEMERIS_TYPE":"0","INCLINATION":"53.0549","BSTAR":"0.00188240000000","RA_OF_ASC_NODE":"232.8476","RCS_SIZE":"LARGE","TLE_LINE2":"2 47634  53.0549 232.8476 0001429  70.0487 349.9048 15.06376386  3607","PERIAPSIS":"546.296","MEAN_ELEMENT_THEORY":"SGP4","OBJECT_TYPE":"PAYLOAD","OBJECT_ID":"2021-012Q","LAUNCH_DATE":"2021-02-16","MEAN_MOTION_DOT":"0.00027850","FILE":"3113379","TLE_LINE1":"1 47634U 21012Q   21254.91667824  .00027850  00000-0  18824-2 0  9994","ECCENTRICITY":"0.00014290","SEMIMAJOR_AXIS":"6925.421","CENTER_NAME":"EARTH","REF_FRAME":"TEME","APOAPSIS":"548.276","SITE":"AFETR","EPOCH":"2021-09-11T22:00:00.999936","MEAN_MOTION":"15.06376386","NORAD_CAT_ID":"47634","TIME_SYSTEM":"UTC","GP_ID":"184534380","MEAN_MOTION_DDOT":"0.0000000000000","MEAN_ANOMALY":"349.9048","REV_AT_EPOCH":"360","ARG_OF_PERICENTER":"70.0487","OBJECT_NAME":"STARLINK-2010","ELEMENT_SET_NO":"999","CLASSIFICATION_TYPE":"U","PERIOD":"95.594"},{"SEMIMAJOR_AXIS":"6727.791","TLE_LINE1":"1 47635U 21012R   21254.91667824  .00023904  00000-0  17391-3 0  9990","ECCENTRICITY":"0.00038430","FILE":"3113379","MEAN_MOTION_DOT":"0.00023904","LAUNCH_DATE":"2021-02-16","OBJECT_ID":"2021-012R","TLE_LINE2":"2 47635  53.0428 148.7717 0003843   2.4507 228.6837 15.73236630  3690","PERIAPSIS":"347.070","MEAN_ELEMENT_THEORY":"SGP4","OBJECT_TYPE":"PAYLOAD","INCLINATION":"53.0428","EPHEMERIS_TYPE":"0","BSTAR":"0.00017391000000","COUNTRY_CODE":"US","DECAY_DATE":null,"RCS_SIZE":"LARGE","RA_OF_ASC_NODE":"148.7717","ELEMENT_SET_NO":"999","CLASSIFICATION_TYPE":"U","PERIOD":"91.531","GP_ID":"184535631","MEAN_MOTION_DDOT":"0.0000000000000","TIME_SYSTEM":"UTC","MEAN_ANOMALY":"228.6837","ARG_OF_PERICENTER":"2.4507","OBJECT_NAME":"STARLINK-2012","REV_AT_EPOCH":"369","REF_FRAME":"TEME","MEAN_MOTION":"15.73236630","EPOCH":"2021-09-11T22:00:00.999936","NORAD_CAT_ID":"47635","APOAPSIS":"352.241","SITE":"AFETR","CENTER_NAME":"EARTH"}];
